{"type": "FeatureCollection", "features": [ {"type": "Feature", "properties": {"norad_id": 61182, "name": "GSAT0232 (GALILEO 32)", "group": "gnss", "lat": 55.09078616915311, "lon": -38.030240199833266, "alt_km": 23217.99628528516, "timestamp": "2025-12-22T20:43:46.092937+00:00", "meta": {"OBJECT_NAME": "GSAT0232 (GALILEO 32)", "OBJECT_ID": "2024-167A", "EPOCH": "2025-12-21T05:44:27.225600", "MEAN_MOTION": 1.70473624, "ECCENTRICITY": 0.0001881, "INCLINATION": 55.2384, "RA_OF_ASC_NODE": 226.1977, "ARG_OF_PERICENTER": 205.7333, "MEAN_ANOMALY": 330.6739, "EPHEMERIS_TYPE": 0, "CLASSIFICATION_TYPE": "U", "NORAD_CAT_ID": 61182, "ELEMENT_SET_NO": 999, "REV_AT_EPOCH": 784, "BSTAR": 0, "MEAN_MOTION_DOT": 7.3e-07, "MEAN_MOTION_DDOT": 0}, "tle": {"line1": "1 61182U 24167A   25355.23920400  .00000073  00000+0  00000+0 0  9996", "line2": "2 61182  55.2384 226.1977 0001881 205.7333 330.6739  1.70473624  7846"}}, "geometry": {"type": "Point", "coordinates": [-38.030240199833266, 55.09078616915311]}}, {"type": "Feature", "properties": {"norad_id": 61183, "name": "GSAT0226 (GALILEO 31)", "group": "gnss", "lat": -21.129413669204265, "lon": 61.73920042209376, "alt_km": 23225.577049114785, "timestamp": "2025-12-22T20:43:46.092948+00:00", "meta": {"OBJECT_NAME": "GSAT0226 (GALILEO 31)", "OBJECT_ID": "2024-167B", "EPOCH": "2025-12-22T05:43:25.937760", "MEAN_MOTION": 1.70473707, "ECCENTRICITY": 0.00011776, "INCLINATION": 55.2367, "RA_OF_ASC_NODE": 226.1757, "ARG_OF_PERICENTER": 107.8451, "MEAN_ANOMALY": 74.5096, "EPHEMERIS_TYPE": 0, "CLASSIFICATION_TYPE": "U", "NORAD_CAT_ID": 61183, "ELEMENT_SET_NO": 999, "REV_AT_EPOCH": 783, "BSTAR": 0, "MEAN_MOTION_DOT": 7.4e-07, "MEAN_MOTION_DDOT": 0}, "tle": {"line1": "1 61183U 24167B   25356.23849465  .00000074  00000+0  00000+0 0  9990", "line2": "2 61183  55.2367 226.1757 0001177 107.8451  74.5096  1.70473707  7836"}}, "geometry": {"type": "Point", "coordinates": [61.73920042209376, -21.129413669204265]}}, {"type": "Feature", "properties": {"norad_id": 61186, "name": "BEIDOU-3 M25 (C47)", "group": "gnss", "lat": 33.427935806182866, "lon": -23.725204062421252, "alt_km": 21527.378248156452, "timestamp": "2025-12-22T20:43:46.092963+00:00", "meta": {"OBJECT_NAME": "BEIDOU-3 M25 (C47)", "OBJECT_ID": "2024-168B", "EPOCH": "2025-12-22T12:27:11.391840", "MEAN_MOTION": 1.86230177, "ECCENTRICITY": 0.0005446, "INCLINATION": 54.6334, "RA_OF_ASC_NODE": 308.3821, "ARG_OF_PERICENTER": 299.7491, "MEAN_ANOMALY": 231.473, "EPHEMERIS_TYPE": 0, "CLASSIFICATION_TYPE": "U", "NORAD_CAT_ID": 61186, "ELEMENT_SET_NO": 999, "REV_AT_EPOCH": 849, "BSTAR": 0, "MEAN_MOTION_DOT": -5.7e-07, "MEAN_MOTION_DDOT": 0}, "tle": {"line1": "1 61186U 24168B   25356.51888185 -.00000057  00000+0  00000+0 0  9999", "line2": "2 61186  54.6334 308.3821 0005446 299.7491 231.4730  1.86230177  8490"}}, "geometry": {"type": "Point", "coordinates": [-23.725204062421252, 33.427935806182866]}}, {"type": "Feature", "properties": {"norad_id": 61187, "name": "BEIDOU-3 M27 (C49)", "group": "gnss", "lat": 2.1106659800960976, "lon": 126.8341428351178, "alt_km": 21534.899716793625, "timestamp": "2025-12-22T20:43:46.092987+00:00", "meta": {"OBJECT_NAME": "BEIDOU-3 M27 (C49)", "OBJECT_ID": "2024-168C", "EPOCH": "2025-12-22T03:50:36.507264", "MEAN_MOTION": 1.86230347, "ECCENTRICITY": 0.00025426, "INCLINATION": 54.6292, "RA_OF_ASC_NODE": 308.3781, "ARG_OF_PERICENTER": 340.4099, "MEAN_ANOMALY": 85.2457, "EPHEMERIS_TYPE": 0, "CLASSIFICATION_TYPE": "U", "NORAD_CAT_ID": 61187, "ELEMENT_SET_NO": 999, "REV_AT_EPOCH": 596, "BSTAR": 0, "MEAN_MOTION_DOT": -5.9e-07, "MEAN_MOTION_DDOT": 0}, "tle": {"line1": "1 61187U 24168C   25356.16014476 -.00000059  00000+0  00000+0 0  9997", "line2": "2 61187  54.6292 308.3781 0002542 340.4099  85.2457  1.86230347  5960"}}, "geometry": {"type": "Point", "coordinates": [126.8341428351178, 2.1106659800960976]}}, {"type": "Feature", "properties": {"norad_id": 62339, "name": "GPS BIII-7  (PRN 01)", "group": "gnss", "lat": 8.850356063974044, "lon": -12.401471209272493, "alt_km": 20150.06547314913, "timestamp": "2025-12-22T20:43:46.093001+00:00", "meta": {"OBJECT_NAME": "GPS BIII-7  (PRN 01)", "OBJECT_ID": "2024-242A", "EPOCH": "2025-12-22T12:02:33.556992", "MEAN_MOTION": 2.00568132, "ECCENTRICITY": 0.00128077, "INCLINATION": 54.9208, "RA_OF_ASC_NODE": 341.3454, "ARG_OF_PERICENTER": 346.2078, "MEAN_ANOMALY": 123.2241, "EPHEMERIS_TYPE": 0, "CLASSIFICATION_TYPE": "U", "NORAD_CAT_ID": 62339, "ELEMENT_SET_NO": 999, "REV_AT_EPOCH": 771, "BSTAR": 0, "MEAN_MOTION_DOT": -6.9e-07, "MEAN_MOTION_DDOT": 0}, "tle": {"line1": "1 62339U 24242A   25356.50177728 -.00000069  00000+0  00000+0 0  9999", "line2": "2 62339  54.9208 341.3454 0012807 346.2078 123.2241  2.00568132  7712"}}, "geometry": {"type": "Point", "coordinates": [-12.401471209272493, 8.850356063974044]}}, {"type": "Feature", "properties": {"norad_id": 62850, "name": "NVS-02 (IRNSS-1K)", "group": "gnss", "lat": -9.601884571121671, "lon": 170.2012210184486, "alt_km": 36773.40585314907, "timestamp": "2025-12-22T20:43:46.093018+00:00", "meta": {"OBJECT_NAME": "NVS-02 (IRNSS-1K)", "OBJECT_ID": "2025-020A", "EPOCH": "2025-12-22T04:45:05.885856", "MEAN_MOTION": 2.17601308, "ECCENTRICITY": 0.73473359, "INCLINATION": 20.961, "RA_OF_ASC_NODE": 324.2351, "ARG_OF_PERICENTER": 32.365, "MEAN_ANOMALY": 356.4574, "EPHEMERIS_TYPE": 0, "CLASSIFICATION_TYPE": "U", "NORAD_CAT_ID": 62850, "ELEMENT_SET_NO": 999, "REV_AT_EPOCH": 712, "BSTAR": 0.00023462008, "MEAN_MOTION_DOT": 1.43e-06, "MEAN_MOTION_DDOT": 0}, "tle": {"line1": "1 62850U 25020A   25356.19798479  .00000143  00000+0  23462-3 0  9992", "line2": "2 62850  20.9610 324.2351 7347335  32.3650 356.4574  2.17601308  7124"}}, "geometry": {"type": "Point", "coordinates": [170.2012210184486, -9.601884571121671]}}, {"type": "Feature", "properties": {"norad_id": 62876, "name": "QZS-6 (QZSS/PRN 200)", "group": "gnss", "lat": 0.06359961735998168, "lon": 133.13336264960208, "alt_km": 35791.60292967178, "timestamp": "2025-12-22T20:43:46.093034+00:00", "meta": {"OBJECT_NAME": "QZS-6 (QZSS/PRN 200)", "OBJECT_ID": "2025-023A", "EPOCH": "2025-12-22T13:35:44.450016", "MEAN_MOTION": 1.00271619, "ECCENTRICITY": 0.00015311, "INCLINATION": 0.0534, "RA_OF_ASC_NODE": 71.4993, "ARG_OF_PERICENTER": 208.9495, "MEAN_ANOMALY": 105.4015, "EPHEMERIS_TYPE": 0, "CLASSIFICATION_TYPE": "U", "NORAD_CAT_ID": 62876, "ELEMENT_SET_NO": 999, "REV_AT_EPOCH": 318, "BSTAR": 0, "MEAN_MOTION_DOT": -2.12e-06, "MEAN_MOTION_DDOT": 0}, "tle": {"line1": "1 62876U 25023A   25356.56648669 -.00000212  00000+0  00000+0 0  9996", "line2": "2 62876   0.0534  71.4993 0001531 208.9495 105.4015  1.00271619  3188"}}, "geometry": {"type": "Point", "coordinates": [133.13336264960208, 0.06359961735998168]}}, {"type": "Feature", "properties": {"norad_id": 63130, "name": "COSMOS 2584 (704K)", "group": "gnss", "lat": 47.21887908590785, "lon": -131.4378285227655, "alt_km": 19125.537973189006, "timestamp": "2025-12-22T20:43:46.093046+00:00", "meta": {"OBJECT_NAME": "COSMOS 2584 (704K)", "OBJECT_ID": "2025-042A", "EPOCH": "2025-12-21T07:00:00.966240", "MEAN_MOTION": 2.13103074, "ECCENTRICITY": 0.00077364, "INCLINATION": 64.9804, "RA_OF_ASC_NODE": 78.8547, "ARG_OF_PERICENTER": 219.241, "MEAN_ANOMALY": 140.7412, "EPHEMERIS_TYPE": 0, "CLASSIFICATION_TYPE": "U", "NORAD_CAT_ID": 63130, "ELEMENT_SET_NO": 999, "REV_AT_EPOCH": 625, "BSTAR": 0, "MEAN_MOTION_DOT": -1.1e-07, "MEAN_MOTION_DDOT": 0}, "tle": {"line1": "1 63130U 25042A   25355.29167785 -.00000011  00000+0  00000+0 0  9992", "line2": "2 63130  64.9804  78.8547 0007736 219.2410 140.7412  2.13103074  6250"}}, "geometry": {"type": "Point", "coordinates": [-131.4378285227655, 47.21887908590785]}}, {"type": "Feature", "properties": {"norad_id": 64202, "name": "GPS BIII-8  (PRN 21)", "group": "gnss", "lat": -16.158232290185296, "lon": -130.09132215214134, "alt_km": 20190.395319136718, "timestamp": "2025-12-22T20:43:46.093056+00:00", "meta": {"OBJECT_NAME": "GPS BIII-8  (PRN 21)", "OBJECT_ID": "2025-116A", "EPOCH": "2025-12-21T15:32:25.982016", "MEAN_MOTION": 2.00557819, "ECCENTRICITY": 0.0005846, "INCLINATION": 55.1118, "RA_OF_ASC_NODE": 38.2817, "ARG_OF_PERICENTER": 310.1313, "MEAN_ANOMALY": 91.6448, "EPHEMERIS_TYPE": 0, "CLASSIFICATION_TYPE": "U", "NORAD_CAT_ID": 64202, "ELEMENT_SET_NO": 999, "REV_AT_EPOCH": 431, "BSTAR": 0, "MEAN_MOTION_DOT": -5.4e-07, "MEAN_MOTION_DDOT": 0}, "tle": {"line1": "1 64202U 25116A   25355.64752294 -.00000054  00000+0  00000+0 0  9996", "line2": "2 64202  55.1118  38.2817 0005846 310.1313  91.6448  2.00557819  4318"}}, "geometry": {"type": "Point", "coordinates": [-130.09132215214134, -16.158232290185296]}}, {"type": "Feature", "properties": {"norad_id": 65590, "name": "COSMOS 2596 (708K)", "group": "gnss", "lat": -54.573283609608325, "lon": -177.33845865216554, "alt_km": 19119.68211409825, "timestamp": "2025-12-22T20:43:46.093068+00:00", "meta": {"OBJECT_NAME": "COSMOS 2596 (708K)", "OBJECT_ID": "2025-206B", "EPOCH": "2025-12-22T03:59:43.719936", "MEAN_MOTION": 2.1310041, "ECCENTRICITY": 0.00140887, "INCLINATION": 64.7392, "RA_OF_ASC_NODE": 321.1476, "ARG_OF_PERICENTER": 307.2643, "MEAN_ANOMALY": 122.2256, "EPHEMERIS_TYPE": 0, "CLASSIFICATION_TYPE": "U", "NORAD_CAT_ID": 65590, "ELEMENT_SET_NO": 999, "REV_AT_EPOCH": 214, "BSTAR": 0, "MEAN_MOTION_DOT": -4.3e-07, "MEAN_MOTION_DDOT": 0}, "tle": {"line1": "1 65590U 25206B   25356.16647824 -.00000043  00000+0  00000+0 0  9995", "line2": "2 65590  64.7392 321.1476 0014088 307.2643 122.2256  2.13100410  2147"}}, "geometry": {"type": "Point", "coordinates": [-177.33845865216554, -54.573283609608325]}}]}